[
  {
    "OBJECT_NAME": "STARLINK-5376",
    "OBJECT_ID": "23046BC",
    "EPOCH": "2025-11-11T07:02:24.343584",
    "MEAN_MOTION": 15.0253716,
    "ECCENTRICITY": 0.0001214,
    "INCLINATION": 43.0022,
    "RA_OF_ASC_NODE": 69.1604,
    "ARG_OF_PERICENTER": 278.9912,
    "MEAN_ANOMALY": 81.0792,
    "EPHEMERIS_TYPE": 0,
    "CLASSIFICATION_TYPE": "U",
    "NORAD_CAT_ID": 56142,
    "ELEMENT_SET_NO": 999,
    "REV_AT_EPOCH": 14440,
    "BSTAR": 5.4992e-05,
    "MEAN_MOTION_DOT": 5.39e-06,
    "MEAN_MOTION_DDOT": 0.0,
    "TLE_LINE1": "1 56142U 23046BC  25315.29333731  .00000539  00000+0  54992-4 0  9999",
    "TLE_LINE2": "2 56142  43.0022  69.1604 0001214 278.9912  81.0792 15.02537160144403",
    "COMMENT": "Grouped by shell and plane from TLE"
  },
  {
    "OBJECT_NAME": "STARLINK-6055",
    "OBJECT_ID": "23064V",
    "EPOCH": "2025-11-11T07:21:55.215648",
    "MEAN_MOTION": 14.98365619,
    "ECCENTRICITY": 0.0003632,
    "INCLINATION": 69.9997,
    "RA_OF_ASC_NODE": 63.0644,
    "ARG_OF_PERICENTER": 273.2008,
    "MEAN_ANOMALY": 86.8735,
    "EPHEMERIS_TYPE": 0,
    "CLASSIFICATION_TYPE": "U",
    "NORAD_CAT_ID": 56467,
    "ELEMENT_SET_NO": 999,
    "REV_AT_EPOCH": 13800,
    "BSTAR": 0.00079953,
    "MEAN_MOTION_DOT": 9.469e-05,
    "MEAN_MOTION_DDOT": 0.0,
    "TLE_LINE1": "1 56467U 23064V   25315.30688907  .00009469  00000+0  79953-3 0  9993",
    "TLE_LINE2": "2 56467  69.9997  63.0644 0003632 273.2008  86.8735 14.98365619138009",
    "COMMENT": "Grouped by shell and plane from TLE"
  },
  {
    "OBJECT_NAME": "STARLINK-5518",
    "OBJECT_ID": "23064X",
    "EPOCH": "2025-11-11T06:03:52.466112",
    "MEAN_MOTION": 14.98328687,
    "ECCENTRICITY": 0.0003097,
    "INCLINATION": 69.9997,
    "RA_OF_ASC_NODE": 63.2773,
    "ARG_OF_PERICENTER": 276.7261,
    "MEAN_ANOMALY": 83.3546,
    "EPHEMERIS_TYPE": 0,
    "CLASSIFICATION_TYPE": "U",
    "NORAD_CAT_ID": 56469,
    "ELEMENT_SET_NO": 999,
    "REV_AT_EPOCH": 13799,
    "BSTAR": 0.00029181000000000004,
    "MEAN_MOTION_DOT": 3.39e-05,
    "MEAN_MOTION_DDOT": 0.0,
    "TLE_LINE1": "1 56469U 23064X   25315.25269058  .00003390  00000+0  29181-3 0  9996",
    "TLE_LINE2": "2 56469  69.9997  63.2773 0003097 276.7261  83.3546 14.98328687137993",
    "COMMENT": "Grouped by shell and plane from TLE"
  },
  {
    "OBJECT_NAME": "STARLINK-5523",
    "OBJECT_ID": "23064Y",
    "EPOCH": "2025-11-11T07:27:59.830560",
    "MEAN_MOTION": 14.98339853,
    "ECCENTRICITY": 0.000226,
    "INCLINATION": 70.0004,
    "RA_OF_ASC_NODE": 63.0797,
    "ARG_OF_PERICENTER": 276.299,
    "MEAN_ANOMALY": 83.7911,
    "EPHEMERIS_TYPE": 0,
    "CLASSIFICATION_TYPE": "U",
    "NORAD_CAT_ID": 56470,
    "ELEMENT_SET_NO": 999,
    "REV_AT_EPOCH": 13800,
    "BSTAR": 2.2512e-05,
    "MEAN_MOTION_DOT": 1.76e-06,
    "MEAN_MOTION_DDOT": 0.0,
    "TLE_LINE1": "1 56470U 23064Y   25315.31110915  .00000176  00000+0  22512-4 0  9993",
    "TLE_LINE2": "2 56470  70.0004  63.0797 0002260 276.2990  83.7911 14.98339853138006",
    "COMMENT": "Grouped by shell and plane from TLE"
  },
  {
    "OBJECT_NAME": "STARLINK-5521",
    "OBJECT_ID": "23064Z",
    "EPOCH": "2025-11-11T07:15:57.984480",
    "MEAN_MOTION": 14.98332742,
    "ECCENTRICITY": 0.0003489,
    "INCLINATION": 70.0003,
    "RA_OF_ASC_NODE": 63.0495,
    "ARG_OF_PERICENTER": 274.9408,
    "MEAN_ANOMALY": 85.1353,
    "EPHEMERIS_TYPE": 0,
    "CLASSIFICATION_TYPE": "U",
    "NORAD_CAT_ID": 56471,
    "ELEMENT_SET_NO": 999,
    "REV_AT_EPOCH": 13800,
    "BSTAR": 0.00013702,
    "MEAN_MOTION_DOT": 1.542e-05,
    "MEAN_MOTION_DDOT": 0.0,
    "TLE_LINE1": "1 56471U 23064Z   25315.30275445  .00001542  00000+0  13702-3 0  9991",
    "TLE_LINE2": "2 56471  70.0003  63.0495 0003489 274.9408  85.1353 14.98332742138000",
    "COMMENT": "Grouped by shell and plane from TLE"
  },
  {
    "OBJECT_NAME": "STARLINK-5038",
    "OBJECT_ID": "23064AA",
    "EPOCH": "2025-11-11T07:03:56.614464",
    "MEAN_MOTION": 14.98333869,
    "ECCENTRICITY": 0.0003027,
    "INCLINATION": 70.0002,
    "RA_OF_ASC_NODE": 63.0226,
    "ARG_OF_PERICENTER": 270.3729,
    "MEAN_ANOMALY": 89.7084,
    "EPHEMERIS_TYPE": 0,
    "CLASSIFICATION_TYPE": "U",
    "NORAD_CAT_ID": 56472,
    "ELEMENT_SET_NO": 999,
    "REV_AT_EPOCH": 13800,
    "BSTAR": 7.3154e-05,
    "MEAN_MOTION_DOT": 7.8e-06,
    "MEAN_MOTION_DDOT": 0.0,
    "TLE_LINE1": "1 56472U 23064AA  25315.29440526  .00000780  00000+0  73154-4 0  9995",
    "TLE_LINE2": "2 56472  70.0002  63.0226 0003027 270.3729  89.7084 14.98333869138008",
    "COMMENT": "Grouped by shell and plane from TLE"
  },
  {
    "OBJECT_NAME": "STARLINK-5524",
    "OBJECT_ID": "23064AC",
    "EPOCH": "2025-11-11T07:33:59.952672",
    "MEAN_MOTION": 14.98336848,
    "ECCENTRICITY": 0.000299,
    "INCLINATION": 70.0001,
    "RA_OF_ASC_NODE": 63.0937,
    "ARG_OF_PERICENTER": 270.5674,
    "MEAN_ANOMALY": 89.5142,
    "EPHEMERIS_TYPE": 0,
    "CLASSIFICATION_TYPE": "U",
    "NORAD_CAT_ID": 56474,
    "ELEMENT_SET_NO": 999,
    "REV_AT_EPOCH": 13800,
    "BSTAR": 4.3304e-06,
    "MEAN_MOTION_DOT": -4.1e-07,
    "MEAN_MOTION_DDOT": 0.0,
    "TLE_LINE1": "1 56474U 23064AC  25315.31527723 -.00000041  00000+0  43304-5 0  9991",
    "TLE_LINE2": "2 56474  70.0001  63.0937 0002990 270.5674  89.5142 14.98336848138000",
    "COMMENT": "Grouped by shell and plane from TLE"
  },
  {
    "OBJECT_NAME": "STARLINK-5541",
    "OBJECT_ID": "23064AD",
    "EPOCH": "2025-11-11T06:57:55.876320",
    "MEAN_MOTION": 14.98332677,
    "ECCENTRICITY": 0.0003196,
    "INCLINATION": 70.0001,
    "RA_OF_ASC_NODE": 63.0042,
    "ARG_OF_PERICENTER": 270.3942,
    "MEAN_ANOMALY": 89.6851,
    "EPHEMERIS_TYPE": 0,
    "CLASSIFICATION_TYPE": "U",
    "NORAD_CAT_ID": 56475,
    "ELEMENT_SET_NO": 999,
    "REV_AT_EPOCH": 13800,
    "BSTAR": 5.3796000000000005e-05,
    "MEAN_MOTION_DOT": 5.49e-06,
    "MEAN_MOTION_DDOT": 0.0,
    "TLE_LINE1": "1 56475U 23064AD  25315.29023005  .00000549  00000+0  53796-4 0  9990",
    "TLE_LINE2": "2 56475  70.0001  63.0042 0003196 270.3942  89.6851 14.98332677138007",
    "COMMENT": "Grouped by shell and plane from TLE"
  },
  {
    "OBJECT_NAME": "STARLINK-5545",
    "OBJECT_ID": "23064AE",
    "EPOCH": "2025-11-11T07:09:57.201408",
    "MEAN_MOTION": 14.98333814,
    "ECCENTRICITY": 0.0003046,
    "INCLINATION": 70.0,
    "RA_OF_ASC_NODE": 63.0347,
    "ARG_OF_PERICENTER": 268.8108,
    "MEAN_ANOMALY": 91.2702,
    "EPHEMERIS_TYPE": 0,
    "CLASSIFICATION_TYPE": "U",
    "NORAD_CAT_ID": 56476,
    "ELEMENT_SET_NO": 999,
    "REV_AT_EPOCH": 13800,
    "BSTAR": 8.9574e-05,
    "MEAN_MOTION_DOT": 9.76e-06,
    "MEAN_MOTION_DDOT": 0.0,
    "TLE_LINE1": "1 56476U 23064AE  25315.29857872  .00000976  00000+0  89574-4 0  9995",
    "TLE_LINE2": "2 56476  70.0000  63.0347 0003046 268.8108  91.2702 14.98333814138003",
    "COMMENT": "Grouped by shell and plane from TLE"
  },
  {
    "OBJECT_NAME": "STARLINK-5534",
    "OBJECT_ID": "23064AF",
    "EPOCH": "2025-11-10T11:20:31.276608",
    "MEAN_MOTION": 14.98333288,
    "ECCENTRICITY": 0.0003154,
    "INCLINATION": 70.0,
    "RA_OF_ASC_NODE": 64.9679,
    "ARG_OF_PERICENTER": 270.5289,
    "MEAN_ANOMALY": 89.5508,
    "EPHEMERIS_TYPE": 0,
    "CLASSIFICATION_TYPE": "U",
    "NORAD_CAT_ID": 56477,
    "ELEMENT_SET_NO": 999,
    "REV_AT_EPOCH": 13788,
    "BSTAR": 3.0717000000000004e-05,
    "MEAN_MOTION_DOT": 2.74e-06,
    "MEAN_MOTION_DDOT": 0.0,
    "TLE_LINE1": "1 56477U 23064AF  25314.47258422  .00000274  00000+0  30717-4 0  9997",
    "TLE_LINE2": "2 56477  70.0000  64.9679 0003154 270.5289  89.5508 14.98333288137886",
    "COMMENT": "Grouped by shell and plane from TLE"
  },
  {
    "OBJECT_NAME": "STARLINK-6041",
    "OBJECT_ID": "23064AG",
    "EPOCH": "2025-11-11T06:51:56.502432",
    "MEAN_MOTION": 14.98329944,
    "ECCENTRICITY": 0.0003208,
    "INCLINATION": 70.0002,
    "RA_OF_ASC_NODE": 62.9919,
    "ARG_OF_PERICENTER": 272.446,
    "MEAN_ANOMALY": 87.6332,
    "EPHEMERIS_TYPE": 0,
    "CLASSIFICATION_TYPE": "U",
    "NORAD_CAT_ID": 56478,
    "ELEMENT_SET_NO": 999,
    "REV_AT_EPOCH": 13800,
    "BSTAR": 5.6369e-05,
    "MEAN_MOTION_DOT": 5.8e-06,
    "MEAN_MOTION_DDOT": 0.0,
    "TLE_LINE1": "1 56478U 23064AG  25315.28607063  .00000580  00000+0  56369-4 0  9998",
    "TLE_LINE2": "2 56478  70.0002  62.9919 0003208 272.4460  87.6332 14.98329944138009",
    "COMMENT": "Grouped by shell and plane from TLE"
  },
  {
    "OBJECT_NAME": "STARLINK-6044",
    "OBJECT_ID": "23064AH",
    "EPOCH": "2025-11-11T06:15:51.411744",
    "MEAN_MOTION": 14.98333669,
    "ECCENTRICITY": 0.0003113,
    "INCLINATION": 69.9999,
    "RA_OF_ASC_NODE": 62.9027,
    "ARG_OF_PERICENTER": 269.0382,
    "MEAN_ANOMALY": 91.042,
    "EPHEMERIS_TYPE": 0,
    "CLASSIFICATION_TYPE": "U",
    "NORAD_CAT_ID": 56479,
    "ELEMENT_SET_NO": 999,
    "REV_AT_EPOCH": 13800,
    "BSTAR": 7.3427e-05,
    "MEAN_MOTION_DOT": 7.83e-06,
    "MEAN_MOTION_DDOT": 0.0,
    "TLE_LINE1": "1 56479U 23064AH  25315.26101171  .00000783  00000+0  73427-4 0  9995",
    "TLE_LINE2": "2 56479  69.9999  62.9027 0003113 269.0382  91.0420 14.98333669138008",
    "COMMENT": "Grouped by shell and plane from TLE"
  },
  {
    "OBJECT_NAME": "STARLINK-6222",
    "OBJECT_ID": "23064AK",
    "EPOCH": "2025-11-11T06:27:52.720416",
    "MEAN_MOTION": 14.98333507,
    "ECCENTRICITY": 0.0003178,
    "INCLINATION": 69.9999,
    "RA_OF_ASC_NODE": 62.9313,
    "ARG_OF_PERICENTER": 268.9269,
    "MEAN_ANOMALY": 91.1526,
    "EPHEMERIS_TYPE": 0,
    "CLASSIFICATION_TYPE": "U",
    "NORAD_CAT_ID": 56481,
    "ELEMENT_SET_NO": 999,
    "REV_AT_EPOCH": 13800,
    "BSTAR": 7.6449e-05,
    "MEAN_MOTION_DOT": 8.19e-06,
    "MEAN_MOTION_DDOT": 0.0,
    "TLE_LINE1": "1 56481U 23064AK  25315.26936019  .00000819  00000+0  76449-4 0  9992",
    "TLE_LINE2": "2 56481  69.9999  62.9313 0003178 268.9269  91.1526 14.98333507138001",
    "COMMENT": "Grouped by shell and plane from TLE"
  }
]